{
"type": "FeatureCollection",
"name": "no-entry",
"crs": { "type": "name", "properties": { "name": "urn:ogc:def:crs:OGC:1.3:CRS84" } },
"features": [
{ "type": "Feature", "properties": { "name": "隅田公園（墨田区側）", "kind": "no-entry" }, "geometry": { "type": "Polygon", "coordinates": [ [ [ 139.799396391679807, 35.712172059650463 ], [ 139.799798324830505, 35.712013401827825 ], [ 139.797308923644636, 35.709088782006724 ], [ 139.796883115781441, 35.708640414786565 ], [ 139.796751689643401, 35.7084503101621 ], [ 139.79551256308369, 35.70659180317449 ], [ 139.795040879204151, 35.705700844735397 ], [ 139.794534228288768, 35.704718185920669 ], [ 139.793479073237904, 35.70518785859575 ], [ 139.793929444296197, 35.705599626420479 ], [ 139.795548418003335, 35.707697498185674 ], [ 139.796103122842709, 35.708567233406832 ], [ 139.796615433703664, 35.709091321528973 ], [ 139.796968751538799, 35.70892643987257 ], [ 139.798344174135877, 35.710551494791659 ], [ 139.798127962187891, 35.7106956360903 ], [ 139.799396391679807, 35.712172059650463 ] ] ] } },
{ "type": "Feature", "properties": { "name": "大会本部", "kind": null }, "geometry": { "type": "Polygon", "coordinates": [ [ [ 139.799693391620963, 35.70970712957962 ], [ 139.800120150262984, 35.710204454611279 ], [ 139.800743107188254, 35.710841384804176 ], [ 139.801080943876769, 35.711140542715228 ], [ 139.80142581153234, 35.711339709142919 ], [ 139.802135686820577, 35.711122357492059 ], [ 139.802044760704746, 35.710904134814029 ], [ 139.802199335101676, 35.708903760265422 ], [ 139.80190837153097, 35.70869463019897 ], [ 139.801180962604207, 35.709049242050774 ], [ 139.801141682760459, 35.709051870247364 ], [ 139.799693391620963, 35.70970712957962 ] ] ] } },
{ "type": "Feature", "properties": { "name": "隅田公園", "kind": null }, "geometry": { "type": "Polygon", "coordinates": [ [ [ 139.802648839583156, 35.711969643702616 ], [ 139.802386701517207, 35.711672553894545 ], [ 139.802316798032962, 35.711480319312855 ], [ 139.803679915975863, 35.711095850149476 ], [ 139.803950791977343, 35.711864788476241 ], [ 139.80431778526966, 35.712624988867475 ], [ 139.803697391846924, 35.712791009642572 ], [ 139.803146901908462, 35.712301685252811 ], [ 139.802849812100391, 35.7120482851224 ], [ 139.802849812100391, 35.7120482851224 ], [ 139.802648839583156, 35.711969643702616 ] ] ] } },
{ "type": "Feature", "properties": { "name": "第二会場本部", "kind": null }, "geometry": { "type": "Polygon", "coordinates": [ [ [ 139.796063161915583, 35.704078016775583 ], [ 139.79680019668325, 35.703757988521197 ], [ 139.797100829285853, 35.704407742855857 ], [ 139.798448827084627, 35.707695305832729 ], [ 139.798245172740934, 35.707772888439848 ], [ 139.797857259705324, 35.707181321060531 ], [ 139.797527533625043, 35.706473379770529 ], [ 139.796538355384229, 35.704514418940654 ], [ 139.796538355384229, 35.704514418940654 ], [ 139.796063161915583, 35.704078016775583 ] ] ] } }
]
}
