{
  "type": "FeatureCollection",
  "crs": {
    "type": "name",
    "properties": {
      "name": "urn:ogc:def:crs:OGC:1.3:CRS84"
    }
  },
  "features": [
    {
      "type": "Feature",
      "properties": {
        "name": "歩行者動線 01（南向き・0.2km）",
        "color": "#5fe6ff"
      },
      "geometry": {
        "type": "LineString",
        "coordinates": [
          [
            139.810534,
            35.726204
          ],
          [
            139.810371,
            35.724841
          ],
          [
            139.810807,
            35.724827
          ]
        ]
      }
    },
    {
      "type": "Feature",
      "properties": {
        "name": "歩行者動線 02（北東向き・0.5km）",
        "color": "#5fe6ff"
      },
      "geometry": {
        "type": "LineString",
        "coordinates": [
          [
            139.799621,
            35.712836
          ],
          [
            139.801775,
            35.715146
          ],
          [
            139.801816,
            35.716917
          ]
        ]
      }
    },
    {
      "type": "Feature",
      "properties": {
        "name": "歩行者動線 03（東向き・0.1km）",
        "color": "#5fe6ff"
      },
      "geometry": {
        "type": "LineString",
        "coordinates": [
          [
            139.797847,
            35.712669
          ],
          [
            139.798551,
            35.712547
          ]
        ]
      }
    },
    {
      "type": "Feature",
      "properties": {
        "name": "歩行者動線 04（東向き・0.1km）",
        "color": "#5fe6ff"
      },
      "geometry": {
        "type": "LineString",
        "coordinates": [
          [
            139.792276,
            35.712568
          ],
          [
            139.793173,
            35.712432
          ]
        ]
      }
    },
    {
      "type": "Feature",
      "properties": {
        "name": "歩行者動線 05（北東向き・0.9km）",
        "color": "#5fe6ff"
      },
      "geometry": {
        "type": "LineString",
        "coordinates": [
          [
            139.803001,
            35.712312
          ],
          [
            139.805862,
            35.714939
          ],
          [
            139.80837,
            35.717686
          ],
          [
            139.808753,
            35.718386
          ],
          [
            139.809412,
            35.718311
          ]
        ]
      }
    },
    {
      "type": "Feature",
      "properties": {
        "name": "歩行者動線 06（北東向き・1.5km）",
        "color": "#5fe6ff"
      },
      "geometry": {
        "type": "LineString",
        "coordinates": [
          [
            139.802454,
            35.712104
          ],
          [
            139.807498,
            35.717011
          ],
          [
            139.808508,
            35.718396
          ],
          [
            139.809018,
            35.719883
          ],
          [
            139.80958,
            35.721366
          ],
          [
            139.810125,
            35.723424
          ],
          [
            139.810779,
            35.723424
          ]
        ]
      }
    },
    {
      "type": "Feature",
      "properties": {
        "name": "歩行者動線 07（北東向き・0.1km）",
        "color": "#5fe6ff"
      },
      "geometry": {
        "type": "LineString",
        "coordinates": [
          [
            139.797791,
            35.711722
          ],
          [
            139.79826,
            35.712191
          ],
          [
            139.798543,
            35.712547
          ]
        ]
      }
    },
    {
      "type": "Feature",
      "properties": {
        "name": "歩行者動線 08（北西向き・0.3km）",
        "color": "#5fe6ff"
      },
      "geometry": {
        "type": "LineString",
        "coordinates": [
          [
            139.808429,
            35.711467
          ],
          [
            139.80555,
            35.712978
          ]
        ]
      }
    },
    {
      "type": "Feature",
      "properties": {
        "name": "歩行者動線 09（北向き・0.3km）",
        "color": "#5fe6ff"
      },
      "geometry": {
        "type": "LineString",
        "coordinates": [
          [
            139.797734,
            35.710751
          ],
          [
            139.797839,
            35.712669
          ],
          [
            139.796965,
            35.71279
          ]
        ]
      }
    },
    {
      "type": "Feature",
      "properties": {
        "name": "歩行者動線 10（北東向き・3.1km）",
        "color": "#5fe6ff"
      },
      "geometry": {
        "type": "LineString",
        "coordinates": [
          [
            139.798102,
            35.71055
          ],
          [
            139.799787,
            35.709592
          ],
          [
            139.802277,
            35.708494
          ],
          [
            139.804349,
            35.708602
          ],
          [
            139.804148,
            35.710071
          ],
          [
            139.804534,
            35.710829
          ],
          [
            139.805549,
            35.712982
          ],
          [
            139.804362,
            35.713583
          ],
          [
            139.801794,
            35.715141
          ],
          [
            139.802749,
            35.716212
          ],
          [
            139.805301,
            35.719466
          ],
          [
            139.806451,
            35.720459
          ],
          [
            139.806843,
            35.721112
          ],
          [
            139.807993,
            35.725815
          ],
          [
            139.808593,
            35.727801
          ]
        ]
      }
    },
    {
      "type": "Feature",
      "properties": {
        "name": "歩行者動線 11（東向き・0.3km）",
        "color": "#5fe6ff"
      },
      "geometry": {
        "type": "LineString",
        "coordinates": [
          [
            139.802135,
            35.709934
          ],
          [
            139.802088,
            35.710894
          ],
          [
            139.804257,
            35.710213
          ]
        ]
      }
    },
    {
      "type": "Feature",
      "properties": {
        "name": "歩行者動線 12（北向き・0.1km）",
        "color": "#5fe6ff"
      },
      "geometry": {
        "type": "LineString",
        "coordinates": [
          [
            139.79434,
            35.709062
          ],
          [
            139.794484,
            35.710065
          ]
        ]
      }
    },
    {
      "type": "Feature",
      "properties": {
        "name": "歩行者動線 13（南西向き・0.5km）",
        "color": "#5fe6ff"
      },
      "geometry": {
        "type": "LineString",
        "coordinates": [
          [
            139.796166,
            35.708772
          ],
          [
            139.794505,
            35.706416
          ],
          [
            139.793327,
            35.705199
          ]
        ]
      }
    },
    {
      "type": "Feature",
      "properties": {
        "name": "歩行者動線 14（西向き・0.1km）",
        "color": "#5fe6ff"
      },
      "geometry": {
        "type": "LineString",
        "coordinates": [
          [
            139.805605,
            35.708617
          ],
          [
            139.804381,
            35.708586
          ]
        ]
      }
    },
    {
      "type": "Feature",
      "properties": {
        "name": "歩行者動線 15（北東向き・2.9km）",
        "color": "#5fe6ff"
      },
      "geometry": {
        "type": "LineString",
        "coordinates": [
          [
            139.78632,
            35.6973
          ],
          [
            139.786997,
            35.698479
          ],
          [
            139.789181,
            35.701608
          ],
          [
            139.789841,
            35.702312
          ],
          [
            139.790769,
            35.706065
          ],
          [
            139.791391,
            35.705844
          ],
          [
            139.792772,
            35.70539
          ],
          [
            139.793362,
            35.705211
          ],
          [
            139.794471,
            35.704686
          ],
          [
            139.796917,
            35.703671
          ],
          [
            139.799953,
            35.703714
          ],
          [
            139.79983,
            35.706422
          ],
          [
            139.798513,
            35.70766
          ],
          [
            139.796563,
            35.708671
          ],
          [
            139.796082,
            35.708816
          ],
          [
            139.794321,
            35.709086
          ],
          [
            139.794158,
            35.708523
          ]
        ]
      }
    },
    {
      "type": "Feature",
      "properties": {
        "name": "歩行者動線 16（北西向き・1.4km）",
        "color": "#5fe6ff"
      },
      "geometry": {
        "type": "LineString",
        "coordinates": [
          [
            139.792716,
            35.695695
          ],
          [
            139.79175,
            35.695744
          ],
          [
            139.791789,
            35.696454
          ],
          [
            139.792273,
            35.697342
          ],
          [
            139.792845,
            35.697983
          ],
          [
            139.79392,
            35.697588
          ],
          [
            139.794285,
            35.697726
          ],
          [
            139.794827,
            35.698802
          ],
          [
            139.79454,
            35.69888
          ],
          [
            139.795253,
            35.700191
          ],
          [
            139.795263,
            35.700306
          ],
          [
            139.794949,
            35.700363
          ],
          [
            139.792208,
            35.701405
          ],
          [
            139.789158,
            35.70159
          ]
        ]
      }
    },
    {
      "type": "Feature",
      "properties": {
        "name": "歩行者動線 17（北東向き・1.0km）",
        "color": "#5fe6ff"
      },
      "geometry": {
        "type": "LineString",
        "coordinates": [
          [
            139.792724,
            35.695667
          ],
          [
            139.79482,
            35.695541
          ],
          [
            139.794834,
            35.695443
          ],
          [
            139.797001,
            35.695597
          ],
          [
            139.797112,
            35.695681
          ],
          [
            139.797518,
            35.695667
          ],
          [
            139.797126,
            35.700265
          ]
        ]
      }
    }
  ]
}
