{
"type": "FeatureCollection",
"name": "regulation-area-reduced",
"crs": { "type": "name", "properties": { "name": "urn:ogc:def:crs:OGC:1.3:CRS84" } },
"features": [
{ "type": "Feature", "properties": { "name": "縮小規制区域", "time": "PM9:30ごろ〜10:00ごろ", "kind": "reduced" }, "geometry": { "type": "Polygon", "coordinates": [ [ [ 139.796287260533859, 35.710863336309245 ], [ 139.79654564861346, 35.712861071732867 ], [ 139.797502422921383, 35.713559258390006 ], [ 139.797709293042004, 35.714347950724914 ], [ 139.800977423142655, 35.71366560368083 ], [ 139.799918501497785, 35.712664250467441 ], [ 139.801757922637137, 35.711601826188684 ], [ 139.802281206237126, 35.711459112479595 ], [ 139.802090921291665, 35.71091997180082 ], [ 139.802265349158318, 35.708509695825121 ], [ 139.798570649800837, 35.707716841885748 ], [ 139.796087772217646, 35.708848504315561 ], [ 139.796287260533859, 35.710863336309245 ] ] ] } }
]
}
