{
"type": "FeatureCollection",
"name": "regulation-area",
"crs": { "type": "name", "properties": { "name": "urn:ogc:def:crs:OGC:1.3:CRS84" } },
"features": [
{ "type": "Feature", "properties": { "name": "交通規制区域", "time": "PM6:00〜9:30ごろ", "kind": "regulation" }, "geometry": { "type": "Polygon", "coordinates": [ [ [ 139.804351462311075, 35.720620477174592 ], [ 139.800163725128982, 35.720792609823071 ], [ 139.798692690677854, 35.715797847304245 ], [ 139.792711614367875, 35.717286398068545 ], [ 139.792575484031488, 35.715230829989167 ], [ 139.792352776118548, 35.713264104331344 ], [ 139.792045511357685, 35.71160044514496 ], [ 139.791388250703477, 35.709692269052063 ], [ 139.789922035597129, 35.702511103795061 ], [ 139.789382991310333, 35.701857781479788 ], [ 139.786300487265322, 35.69730684136654 ], [ 139.785198096456327, 35.695464038820134 ], [ 139.784474138313101, 35.694904616618551 ], [ 139.787762116720074, 35.694463890902945 ], [ 139.789728598366167, 35.69414063364605 ], [ 139.805472867289836, 35.695009936916115 ], [ 139.804307148569478, 35.708604933640274 ], [ 139.808545370208833, 35.708814585532316 ], [ 139.808492139617215, 35.709781607946702 ], [ 139.808465524321406, 35.710792989187432 ], [ 139.810767450892683, 35.712054815065137 ], [ 139.812770950279315, 35.713716797356895 ], [ 139.820429537034869, 35.720250568524982 ], [ 139.814891098766907, 35.726011781802413 ], [ 139.813866890686683, 35.727100002887646 ], [ 139.813198513248324, 35.727614661974052 ], [ 139.805389994600347, 35.72854275913798 ], [ 139.805039280548101, 35.727151892729445 ], [ 139.804922198549775, 35.726303048241455 ], [ 139.804878292800396, 35.725000511009888 ], [ 139.804644128803687, 35.724137031272107 ], [ 139.804351462311075, 35.720620477174592 ] ] ] } }
]
}
