{
  "type": "FeatureCollection",
  "features": [
    {
      "type": "Feature",
      "properties": {
        "name": "隅田川 中心線",
        "width": 110
      },
      "geometry": {
        "type": "LineString",
        "coordinates": [
          [
            139.811258,
            35.732699
          ],
          [
            139.810191,
            35.729954
          ],
          [
            139.80981,
            35.728125
          ],
          [
            139.809477,
            35.724634
          ],
          [
            139.809163,
            35.723024
          ],
          [
            139.80773,
            35.718834
          ],
          [
            139.806727,
            35.717549
          ],
          [
            139.805191,
            35.715825
          ],
          [
            139.803439,
            35.714192
          ],
          [
            139.800972,
            35.712127
          ],
          [
            139.798997,
            35.710092
          ],
          [
            139.797393,
            35.708325
          ],
          [
            139.795093,
            35.704408
          ],
          [
            139.793694,
            35.701323
          ],
          [
            139.792361,
            35.699253
          ],
          [
            139.789913,
            35.696522
          ],
          [
            139.78883,
            35.694356
          ],
          [
            139.788736,
            35.692519
          ],
          [
            139.789206,
            35.690777
          ]
        ]
      }
    }
  ]
}
