{
  "type": "FeatureCollection",
  "features": [
    {
      "type": "Feature",
      "properties": {
        "name": "江戸通り（国道 6 号）",
        "kind": "vehicle"
      },
      "geometry": {
        "type": "LineString",
        "coordinates": [
          [
            139.801,
            35.7139
          ],
          [
            139.7969,
            35.71
          ],
          [
            139.7952,
            35.7078
          ],
          [
            139.7937,
            35.7046
          ],
          [
            139.7913,
            35.7007
          ]
        ]
      }
    },
    {
      "type": "Feature",
      "properties": {
        "name": "雷門通り",
        "kind": "vehicle"
      },
      "geometry": {
        "type": "LineString",
        "coordinates": [
          [
            139.7969,
            35.71
          ],
          [
            139.794,
            35.7106
          ],
          [
            139.7907,
            35.7112
          ]
        ]
      }
    },
    {
      "type": "Feature",
      "properties": {
        "name": "馬道通り",
        "kind": "vehicle"
      },
      "geometry": {
        "type": "LineString",
        "coordinates": [
          [
            139.7967,
            35.7104
          ],
          [
            139.7971,
            35.713
          ],
          [
            139.7975,
            35.7157
          ]
        ]
      }
    },
    {
      "type": "Feature",
      "properties": {
        "name": "言問通り",
        "kind": "vehicle"
      },
      "geometry": {
        "type": "LineString",
        "coordinates": [
          [
            139.801,
            35.7139
          ],
          [
            139.7985,
            35.7152
          ],
          [
            139.796,
            35.7163
          ]
        ]
      }
    },
    {
      "type": "Feature",
      "properties": {
        "name": "浅草通り",
        "kind": "vehicle"
      },
      "geometry": {
        "type": "LineString",
        "coordinates": [
          [
            139.7969,
            35.71
          ],
          [
            139.794,
            35.7096
          ],
          [
            139.791,
            35.7093
          ]
        ]
      }
    },
    {
      "type": "Feature",
      "properties": {
        "name": "清澄通り",
        "kind": "vehicle"
      },
      "geometry": {
        "type": "LineString",
        "coordinates": [
          [
            139.7962,
            35.7052
          ],
          [
            139.795,
            35.701
          ],
          [
            139.7935,
            35.696
          ]
        ]
      }
    },
    {
      "type": "Feature",
      "properties": {
        "name": "墨堤通り",
        "kind": "vehicle"
      },
      "geometry": {
        "type": "LineString",
        "coordinates": [
          [
            139.8073,
            35.7176
          ],
          [
            139.8035,
            35.714
          ],
          [
            139.799,
            35.7106
          ]
        ]
      }
    },
    {
      "type": "Feature",
      "properties": {
        "name": "桜橋",
        "kind": "bridge"
      },
      "geometry": {
        "type": "LineString",
        "coordinates": [
          [
            139.8058,
            35.7186
          ],
          [
            139.8073,
            35.7176
          ]
        ]
      }
    },
    {
      "type": "Feature",
      "properties": {
        "name": "言問橋",
        "kind": "bridge"
      },
      "geometry": {
        "type": "LineString",
        "coordinates": [
          [
            139.8012,
            35.7146
          ],
          [
            139.8036,
            35.7139
          ]
        ]
      }
    },
    {
      "type": "Feature",
      "properties": {
        "name": "吾妻橋",
        "kind": "bridge"
      },
      "geometry": {
        "type": "LineString",
        "coordinates": [
          [
            139.7967,
            35.7106
          ],
          [
            139.799,
            35.7098
          ]
        ]
      }
    },
    {
      "type": "Feature",
      "properties": {
        "name": "駒形橋",
        "kind": "bridge"
      },
      "geometry": {
        "type": "LineString",
        "coordinates": [
          [
            139.7951,
            35.7086
          ],
          [
            139.7974,
            35.7078
          ]
        ]
      }
    },
    {
      "type": "Feature",
      "properties": {
        "name": "厩橋",
        "kind": "bridge"
      },
      "geometry": {
        "type": "LineString",
        "coordinates": [
          [
            139.7936,
            35.7053
          ],
          [
            139.796,
            35.7045
          ]
        ]
      }
    },
    {
      "type": "Feature",
      "properties": {
        "name": "蔵前橋",
        "kind": "bridge"
      },
      "geometry": {
        "type": "LineString",
        "coordinates": [
          [
            139.7912,
            35.7014
          ],
          [
            139.7936,
            35.7005
          ]
        ]
      }
    }
  ]
}
